#dP2021  7 31  0  0  0.00000000      96 __u+U ITR00 FIT  IAC
## 2168 518400.00000000   900.00000000 59426 0.0000000000000
+  116   C06C07C08C09C10C11C12C13C14C16C19C20C21C22C23C24C25
+        C26C27C28C29C30C32C33C34C35C36C37C38C39C40C41C42C43
+        C44C45C46E01E02E03E04E05E07E08E09E11E12E13E14E15E18
+        E19E21E24E25E26E27E30E31E33E36G01G02G03G04G05G06G07
+        G08G09G10G11G12G13G15G16G17G18G19G20G21G22G23G24G25
+        G26G27G28G29G30G31G32J01J02J03R01R02R03R04R05R07R08
+        R09R11R12R13R14R15R16R17R18R19R20R21R22R24  0  0  0
++         8  8  6  7  7  8  8  7 10  7  7  6  8  8  7  8  7
++         9  6  7  6  7  6  8  7  7  6  6  9  8  8  7  6  6
++         7  8  8  6  6  6  6  7  6  6  7  7  6  7  7  6  6
++         6  6  7  6  7  6  6  6  5  6  5  6  6  5  6  6  6
++         5  5  6  5  6  6  6  6  7  5  6  6  5  6  7  6  5
++         4  6  6  5  6  8  6  9  8  9  7  8  6  5  6  8  5
++         8  5  6  7  7  6  8  6  8  7  6  5  7  6  0  0  0
%c M  cc GPS ccc cccc cccc cccc cccc ccccc ccccc ccccc ccccc
%c cc cc ccc ccc cccc cccc cccc cccc ccccc ccccc ccccc ccccc
%f  0.0000000  0.000000000  0.00000000000  0.000000000000000
%f  0.0000000  0.000000000  0.00000000000  0.000000000000000
%i    0    0    0    0      0      0      0      0         0
%i    0    0    0    0      0      0      0      0         0
/* INFORMATION & ANALYSIS CENTER (IAC)      ULTRA-RAPID DATA
/* S/V CLOCKS ARE ALIGNED TO GNSS TIME                      
/* G:C1WC2W R:C1PC2P E:C1XC5X C:C2IC6I J:C1CC2S             
/* PCV:IGS14_2163 OL/AL:FES2004  NONE     YN ORB:CoN CLK:CoN
*  2021 07 31 20 30  0.00000000
PC06 -13595.386477  38893.995362  -7157.334876    696.736694
PC07  -9339.387553  25861.838491  32326.514211     60.713550
PC08 -24630.364484  23963.100835 -24571.425378   -912.942481
PC09  -5327.522419  41021.349796   7167.036857      8.098106
PC10   3945.970792  31349.899234  28360.453860    -13.070089
PC11   8799.712267 -26432.907116  -1027.270694    490.331797
PC12  16114.099725 -15055.942008 -17054.347238    795.028866
PC13 -10041.870214  25565.688585 -31986.224937    357.008976
PC14   1839.351741 -18603.788529  20720.723096    758.179166
PC16 -12344.315178  39722.229716  -6042.073228   -886.138583
PC19   7644.693724  22335.608708 -14874.249287    929.803402
PC20  -9086.985649  13210.559168 -22829.268644   -830.399406
PC21  21301.016097   4406.285715  17510.825998   -937.906123
PC22  20476.177409  18884.323154   1960.695395   -949.114147
PC23 -18279.815202  -9377.645610 -18870.209658   -964.442241
PC24  20774.316630 -14139.409437 -12112.200999   -964.240060
PC25    546.220405 -16718.551235 -22334.980379   -877.340496
PC26  27224.110026  -4632.046200   3894.539184    870.889837
PC27 -16994.555348   5022.016483  21531.846639    573.447319
PC28 -10451.641258 -15359.491603  20818.505267    -43.985048
PC29  -1194.729277  26754.094403  -7860.647952    427.092130
PC30 -12983.273847  22515.770445  10129.076626    475.925863
PC32 -21328.390314  -4262.073879 -17463.263023   -927.474844
PC33  -7628.559806 -22278.548747  14961.254588   -949.980975
PC34  12711.814568 -22997.523880  -9435.275006   -615.451985
PC35  10844.863383  15353.865167 -20625.167230   -161.121070
PC36  -1386.419189  16777.381414  22288.331682   -738.180769
PC37 -27293.077000   3385.890439  -4752.202470   -862.340500
PC38 -21840.546359  26154.446429 -24924.035935    165.472340
PC39  -9588.113331  40522.915954  -6066.331207     32.725419
PC40    313.805535  27616.185416  31947.304489    185.901475
PC41 -20364.720193 -19011.869471  -1565.943247 999999.999999
PC42   9878.767731 -12590.605817  22900.988348   -926.130739
PC43   1693.062191 -26888.698569   7296.874109   -846.887367
PC44  16941.426723  -5364.167912 -21535.164418    317.755715
PC45  18392.413394   9176.114323  18880.298746    508.372466
PC46 -19951.819334  14540.862085  13053.084608    153.284076
PE01 -23461.325216   6110.681955  16988.255211  -1161.932510
PE02  23364.429530  -6194.202291 -17074.213836    236.762494
PE03  13645.824561 -12010.540734  23358.559442   -458.723975
PE04  -1058.888211  26891.446834 -12322.129537   -825.223038
PE05  18410.558563  10152.580503  20842.882959   -260.833098
PE07 -12388.334397 -26147.772545  -6205.222990   -568.318340
PE08    623.048684 -27002.777335  12095.320299   5961.453183
PE09  12584.828024  26023.955593   6418.887630   5581.614389
PE11   6013.848168  16438.334298 -23883.633024   5642.347585
PE12 -12197.797771  24303.406686 -11687.013791   5083.261530
PE13  -5583.559507 -16695.989761  23792.308641    419.715595
PE14 -13372.902873  11890.396409  16953.515148  -1519.609718
PE15  12139.123654 -24319.865328  11717.638125    800.467196
PE18  19862.414533  -4854.022973 -24257.871859  -1666.073339
PE19 -14594.364394   9520.644639 -23920.273163    340.791235
PE21 -28833.724743  -6676.532096    322.400286   -679.389972
PE24  16813.427376  16569.689012  17843.863970  -1038.042817
PE25  28802.847406   6830.870254    -89.354471   -541.771366
PE26 -20514.556226   1431.269550  21289.321074   1514.671800
PE27 -17775.420001 -16220.765102 -17228.454132    -87.870163
PE30   4963.635026 -15885.585937 -24479.407296   2738.977266
PE31  -3656.194869  16168.064857  24536.777224   -483.885830
PE33 -22670.156791  17605.784856   7223.657025   -466.903078
PE36  19974.924530   -729.402193 -21836.739605   -242.092203
PG01  -9200.664477  19450.128604 -15612.604040    611.363533
PG02  21830.046646 -13982.707179  -5277.075115   -623.359126
PG03  -1184.036028  15597.318591 -21573.612009   -238.444681
PG04  -1180.426764  26087.860378  -4653.380551   -203.321532
PG05  13816.787881  -9924.265057  20276.374714    -49.660417
PG06  21409.785309  -3055.686362 -15400.195355     48.578181
PG07   6114.304332  14630.970474  21623.385889    215.065337
PG08  -7342.304949  20825.101457  14518.380528    -30.868712
PG09   7707.665999  24611.794350   6237.655617   -357.433808
PG10 -23845.442792 -11872.961668   2103.736637   -173.240291
PG11  23669.031421 -10520.593533  -5882.854747     27.102503
PG12   2452.709809 -15429.992462 -21746.864035    -76.442165
PG13  12916.665380 -13885.240917  18398.786277    165.131232
PG15   5233.764522 -21835.166616  13539.731519   -131.616617
PG16 -19408.868570   3207.214634  17812.944111   -366.197676
PG17  12429.766384  15302.838441 -17366.731354    482.341421
PG18  -7905.787668 -12816.397225  21862.474699    336.734147
PG19  14596.563953   5839.082560 -21709.780029     33.626615
PG20  22832.160006  -3573.225142  12823.436440    519.893856
PG21 -15325.415321  19870.551331  -7148.576520    134.585903
PG22  -9099.830178  13274.213874 -20926.387911   -549.653765
PG23 -17019.499817 -16175.650012  12451.514811     76.991415
PG24  11988.025442 -20917.982689 -10934.980500    193.886739
PG25  -9896.113639 -17672.412496 -17580.433412    183.252765
PG26 -25097.014744  -2880.791956   8580.729647    117.252222
PG27 -12551.455821  11175.684163  20291.186652   -171.428757
PG28  24026.049146  10052.900594  -4110.014775    528.064129
PG29  -4242.807027 -25730.206316   4813.852080   -389.061289
PG30  17093.231978   5668.915871  19663.248322   -457.137172
PG31 -22690.127571   4124.917423 -13662.567766   -131.742788
PG32 -14705.290428 -11652.787136 -18751.292946     10.793856
PJ01 -20117.124725  21772.698999 -25421.328619   -428.417338
PJ02 -30068.671157  21750.879537  24901.079347     -1.183925
PJ03 -29890.646341  27485.090378  16609.871526     -0.463944
PR01  -2263.700684  14348.453861 -20971.183061     83.139597
PR02  11657.584741  22050.684286  -5152.434228    488.088527
PR03  16851.575976  14851.895602  12080.710631     40.490376
PR04  12316.576186   -392.334774  22359.793375     98.258086
PR05   1068.412731 -15526.111118  20228.076418     76.332526
PR07 -16840.418415 -14499.332421 -12526.869205    -41.827909
PR08 -12376.020429    481.756181 -22247.758922    -60.154859
PR09  -7886.918806 -10221.924613 -21964.606250      5.750631
PR11 -24427.708929   4705.794128   5617.605077     45.472827
PR12 -11760.629331  10463.389771  20108.372814    249.889260
PR13   7101.313354  10118.760743  22304.364549    -58.498829
PR14  22669.924705   3727.101725  11124.467619     67.115021
PR15  24326.033751  -4620.538064  -6116.054780    102.359704
PR16  10219.088471 -11043.538289 -20576.151069    -18.796415
PR17   9314.623914   4964.607103 -23220.388718    445.866193
PR18  14634.759401 -11847.720056 -17224.597551     85.350411
PR19  13124.856759 -21660.299788  -3002.881540   -153.677645
PR20   2527.623690 -19702.420156  16025.422832    -53.386051
PR21  -9889.843692  -3607.697211  23228.308886   -228.071114
PR22 -14718.416931  12570.839361  16541.224125   -125.513862
PR24  -1419.682886  19498.018708 -16387.496739     52.690108
EOF
